<?xml version="1.0" encoding="UTF-8"?>
<gpx version="1.1" creator="test" xmlns="http://www.topografix.com/GPX/1/1">
  <trk>
    <name>Test Track</name>
    <trkseg>
      <trkpt lat="50.0000" lon="19.9000"><ele>200</ele><time>2026-01-01T10:00:00Z</time></trkpt>
      <trkpt lat="50.0010" lon="19.9000"><ele>210</ele><time>2026-01-01T10:05:00Z</time></trkpt>
      <trkpt lat="50.0020" lon="19.9000"><ele>205</ele><time>2026-01-01T10:10:00Z</time></trkpt>
      <trkpt lat="50.0030" lon="19.9000"><ele>220</ele><time>2026-01-01T10:15:00Z</time></trkpt>
    </trkseg>
  </trk>
</gpx>
